OBJECT_NAME,OBJECT_ID,EPOCH,MEAN_MOTION,ECCENTRICITY,INCLINATION,RA_OF_ASC_NODE,ARG_OF_PERICENTER,MEAN_ANOMALY,EPHEMERIS_TYPE,CLASSIFICATION_TYPE,NORAD_CAT_ID,ELEMENT_SET_NO,REV_AT_EPOCH,BSTAR,MEAN_MOTION_DOT,MEAN_MOTION_DDOT
SIRION PATHFINDER-2,2018-099B,2026-06-16T20:26:02.158368,15.14545870,.0007208,97.4250,216.9168,306.7687,53.2883,0,U,43759,999,41257,.19308E-3,.3496E-4,0
CORVUS BC4,2018-099K,2026-06-16T20:34:50.416608,15.12494160,.0008297,97.4063,210.8474,14.2993,345.8471,0,U,43767,999,41235,.22214E-3,.3806E-4,0
M2 PATHFINDER,2020-037E,2026-06-16T18:44:26.437056,15.04675090,.0012485,97.8147,359.0082,147.2863,212.9138,0,U,45727,999,32543,.11026E-3,.1489E-4,0
NETSAT-4,2020-068U,2026-06-16T12:59:43.029600,15.43846138,.0003937,97.8599,175.7304,341.0276,19.0823,0,U,46504,999,31567,.30685E-3,.13826E-3,0
NETSAT-3,2020-068V,2026-06-16T13:08:02.450976,15.42658786,.000429,97.8646,173.9537,4.2756,355.8526,0,U,46505,999,31558,.34409E-3,.14911E-3,0
NETSAT-1,2020-068W,2026-06-16T19:25:32.788992,15.34635885,.0005079,97.8743,168.5723,33.8447,326.3118,0,U,46506,999,31524,.32215E-3,.10732E-3,0
NETSAT-2,2020-068X,2026-06-16T12:25:28.452288,15.45973475,.00034857,97.8607,175.5965,29.6023,330.5422,0,U,46507,999,31563,.37366885E-3,.18134E-3,0
GREENCUBE (IO-117),2022-080E,2026-06-13T07:02:28.697280,6.42583230,.00089108,70.1444,299.5995,290.4576,69.5127,0,U,53109,999,9181,0,-.3E-7,0
SITRO-AIS 5 (KATYS),2023-091L,2026-06-16T19:23:56.026176,15.29450293,.0012773,97.5061,231.7040,104.5585,255.7072,0,U,57176,999,16428,.36312E-3,.10319E-3,0
SITRO-AIS 6 (CHIRKIN),2023-091AC,2026-06-16T20:26:47.324832,15.25929801,.0013111,97.5067,230.8689,107.5578,252.7093,0,U,57192,999,16423,.34344E-3,.8761E-4,0
SITRO-AIS 8 (ANOKHIN),2023-091AD,2026-06-16T19:49:24.295296,15.32128574,.0011799,97.5056,233.3090,101.0792,259.1776,0,U,57193,999,16439,.38854E-3,.12004E-3,0
SITRO-AIS 7 (FARTUSHNIY),2023-091AE,2026-06-16T20:31:13.478304,15.25618114,.0012957,97.5064,230.6972,108.3807,251.8841,0,U,57194,999,16422,.34357E-3,.8682E-4,0
SITRO-AIS 10 (BURDAEV),2023-091AK,2026-06-16T20:37:01.246080,15.38602514,.0007522,97.5082,238.3933,81.5213,278.6884,0,U,57199,999,16471,.45556E-3,.17314E-3,0
SITRO-AIS 9 (SHCHUKIN),2023-091AM,2026-06-16T19:41:12.235200,15.38109034,.0007799,97.5080,238.0838,81.5518,278.6610,0,U,57201,999,16469,.43622E-3,.1631E-3,0
SITRO-AIS 12 (SMIRENNIY),2023-091AQ,2026-06-16T19:27:47.966112,15.38402415,.0007327,97.5094,238.5411,76.8588,283.3474,0,U,57204,999,16471,.44372E-3,.1675E-3,0
SITRO-AIS 11 (SHEFFER),2023-091AU,2026-06-16T19:47:15.943776,15.38826571,.0007223,97.5091,238.8014,76.5973,283.6077,0,U,57208,999,16473,.43315E-3,.16576E-3,0
SITRO-AIS 25,2024-039R,2026-06-16T20:09:51.558048,14.93511867,.0143512,95.3907,234.8541,329.9753,29.3298,0,U,59066,999,12467,.1724E-3,.2186E-4,0
SITRO-AIS 26,2024-039S,2026-06-16T20:11:46.080384,14.93307783,.0143862,95.3908,234.7527,330.5586,28.7590,0,U,59067,999,12466,.17063E-3,.2154E-4,0
SITRO-AIS 27,2024-039T,2026-06-16T21:05:31.579872,14.93730146,.0142799,95.3915,235.0498,329.0764,30.2108,0,U,59068,999,12469,.18036E-3,.2298E-4,0
SITRO-AIS 28,2024-039U,2026-06-16T20:33:03.392928,14.93761885,.0142704,95.3912,235.0816,328.9558,30.3290,0,U,59071,999,12469,.19765E-3,.2524E-4,0
GRBBETA,2024-128C,2026-06-16T16:32:17.840832,15.06636880,.0040716,61.9884,218.0139,134.5575,225.8855,0,U,60237,999,10619,.18568E-3,.2596E-4,0
OOV-CUBE (TUBSAT-30),2024-128F,2026-06-16T15:44:59.016768,15.02772513,.004465,61.9941,227.4248,133.6062,226.8748,0,U,60240,999,10603,.12883E-3,.1551E-4,0
ROBUSTA-3A (MEDITERRANEE),2024-128J,2026-06-16T14:32:10.287168,15.11671493,.0041447,61.9848,210.3011,127.8993,232.5862,0,U,60243,999,10633,.25309E-3,.4187E-4,0
LASARSAT,2024-247Q,2026-06-16T00:10:25.109184,15.46313452,.00082583,44.9746,268.8456,324.3459,35.6879,0,U,62391,999,8313,.52617793E-3,.26291E-3,0
CROCUBE,2024-247T,2026-06-14T14:05:15.116064,15.48102542,.0008187,44.9722,274.1999,320.7516,39.2780,0,U,62394,999,8294,.65094E-3,.34757E-3,0
FORESAIL-1 PRIME,2025-276DS,2026-06-16T17:35:32.415648,15.18699330,.000396,97.4201,241.0120,104.4399,255.7275,0,U,66778,999,3033,.20354E-3,.4156E-4,0
KNACKSAT-2,1998-067XZ,2026-06-16T15:29:59.515008,15.59934910,.0009189,51.6312,297.1999,212.7793,147.2631,0,U,67683,999,2019,.4823E-3,.39403E-3,0
