SIRION PATHFINDER-2     
1 43759U 18099B   26167.85141387  .00003496  00000+0  19308-3 0  9999
2 43759  97.4250 216.9168 0007208 306.7687  53.2883 15.14545870412572
CORVUS BC4              
1 43767U 18099K   26167.85752797  .00003806  00000+0  22214-3 0  9996
2 43767  97.4063 210.8474 0008297  14.2993 345.8471 15.12494160412358
M2 PATHFINDER           
1 45727U 20037E   26167.78086154  .00001489  00000+0  11026-3 0  9992
2 45727  97.8147 359.0082 0012485 147.2863 212.9138 15.04675090325431
NETSAT-4                
1 46504U 20068U   26167.54147025  .00013826  00000+0  30685-3 0  9999
2 46504  97.8599 175.7304 0003937 341.0276  19.0823 15.43846138315678
NETSAT-3                
1 46505U 20068V   26167.54725059  .00014911  00000+0  34409-3 0  9993
2 46505  97.8646 173.9537 0004290   4.2756 355.8526 15.42658786315584
NETSAT-1                
1 46506U 20068W   26167.80940728  .00010732  00000+0  32215-3 0  9995
2 46506  97.8743 168.5723 0005079  33.8447 326.3118 15.34635885315240
NETSAT-2                
1 46507U 20068X   26167.51769042  .00018134  00000+0  37367-3 0  9999
2 46507  97.8607 175.5965 0003485  29.6023 330.5422 15.45973475315638
GREENCUBE (IO-117)      
1 53109U 22080E   26164.29338770 -.00000003  00000+0  00000+0 0  9990
2 53109  70.1444 299.5995 0008910 290.4576  69.5127  6.42583230 91811
SITRO-AIS 5 (KATYS)     
1 57176U 23091L   26167.80828734  .00010319  00000+0  36312-3 0  9994
2 57176  97.5061 231.7040 0012773 104.5585 255.7072 15.29450293164280
SITRO-AIS 6 (CHIRKIN)   
1 57192U 23091AC  26167.85193663  .00008761  00000+0  34344-3 0  9994
2 57192  97.5067 230.8689 0013111 107.5578 252.7093 15.25929801164232
SITRO-AIS 8 (ANOKHIN)   
1 57193U 23091AD  26167.82597564  .00012004  00000+0  38854-3 0  9995
2 57193  97.5056 233.3090 0011799 101.0792 259.1776 15.32128574164394
SITRO-AIS 7 (FARTUSHNIY)
1 57194U 23091AE  26167.85501711  .00008682  00000+0  34357-3 0  9999
2 57194  97.5064 230.6972 0012957 108.3807 251.8841 15.25618114164227
SITRO-AIS 10 (BURDAEV)  
1 57199U 23091AK  26167.85904220  .00017314  00000+0  45556-3 0  9991
2 57199  97.5082 238.3933 0007522  81.5213 278.6884 15.38602514164718
SITRO-AIS 9 (SHCHUKIN)  
1 57201U 23091AM  26167.82028050  .00016310  00000+0  43622-3 0  9997
2 57201  97.5080 238.0838 0007799  81.5518 278.6610 15.38109034164698
SITRO-AIS 12 (SMIRENNIY)
1 57204U 23091AQ  26167.81097183  .00016750  00000+0  44372-3 0  9993
2 57204  97.5094 238.5411 0007327  76.8588 283.3474 15.38402415164712
SITRO-AIS 11 (SHEFFER)  
1 57208U 23091AU  26167.82449009  .00016576  00000+0  43315-3 0  9998
2 57208  97.5091 238.8014 0007223  76.5973 283.6077 15.38826571164732
SITRO-AIS 25            
1 59066U 24039R   26167.84018007  .00002186  00000+0  17240-3 0  9997
2 59066  95.3907 234.8541 0143512 329.9753  29.3298 14.93511867124670
SITRO-AIS 26            
1 59067U 24039S   26167.84150556  .00002154  00000+0  17063-3 0  9992
2 59067  95.3908 234.7527 0143862 330.5586  28.7590 14.93307783124662
SITRO-AIS 27            
1 59068U 24039T   26167.87883773  .00002298  00000+0  18036-3 0  9990
2 59068  95.3915 235.0498 0142799 329.0764  30.2108 14.93730146124690
SITRO-AIS 28            
1 59071U 24039U   26167.85628927  .00002524  00000+0  19765-3 0  9992
2 59071  95.3912 235.0816 0142704 328.9558  30.3290 14.93761885124697
GRBBETA                 
1 60237U 24128C   26167.68909538  .00002596  00000+0  18568-3 0  9997
2 60237  61.9884 218.0139 0040716 134.5575 225.8855 15.06636880106193
OOV-CUBE (TUBSAT-30)    
1 60240U 24128F   26167.65623862  .00001551  00000+0  12883-3 0  9995
2 60240  61.9941 227.4248 0044650 133.6062 226.8748 15.02772513106033
ROBUSTA-3A (MEDITERRAN*)
1 60243U 24128J   26167.60567462  .00004187  00000+0  25309-3 0  9991
2 60243  61.9848 210.3011 0041447 127.8993 232.5862 15.11671493106339
LASARSAT                
1 62391U 24247Q   26167.00723506  .00026291  00000+0  52618-3 0  9999
2 62391  44.9746 268.8456 0008258 324.3459  35.6879 15.46313452 83136
CROCUBE                 
1 62394U 24247T   26165.58698051  .00034757  00000+0  65094-3 0  9997
2 62394  44.9722 274.1999 0008187 320.7516  39.2780 15.48102542 82947
FORESAIL-1 PRIME        
1 66778U 25276DS  26167.73301407  .00004156  00000+0  20354-3 0  9995
2 66778  97.4201 241.0120 0003960 104.4399 255.7275 15.18699330 30334
KNACKSAT-2              
1 67683U 98067XZ  26167.64582772  .00039403  00000+0  48230-3 0  9991
2 67683  51.6312 297.1999 0009189 212.7793 147.2631 15.59934910 20196
